start=new Date('2022-09-04T00:00:00.000Z').valueOf();
sats=[{"REF_FRAME":"TEME","TIME_SYSTEM":"UTC","MEAN_ANOMALY":"279.9120","MEAN_ELEMENT_THEORY":"SGP4","FILE":"3556957","BSTAR":"0.00022770000000","COUNTRY_CODE":"US","GP_ID":"211670713","TLE_LINE2":"2 47551  53.0554  20.7416 0001306  80.2017 279.9120 15.06410177 87438","ECCENTRICITY":"0.00013060","NORAD_CAT_ID":"47551","EPHEMERIS_TYPE":"0","REV_AT_EPOCH":"8743","INCLINATION":"53.0554","ELEMENT_SET_NO":"999","ARG_OF_PERICENTER":"80.2017","SEMIMAJOR_AXIS":"6925.317","MEAN_MOTION_DOT":"0.00003113","EPOCH":"2022-09-03T19:13:54.634656","CENTER_NAME":"EARTH","OBJECT_TYPE":"PAYLOAD","SITE":"AFETR","DECAY_DATE":null,"MEAN_MOTION_DDOT":"0.0000000000000","RCS_SIZE":"LARGE","TLE_LINE1":"1 47551U 21009D   22246.80132679  .00003113  00000-0  22770-3 0  9995","PERIOD":"95.591","RA_OF_ASC_NODE":"20.7416","PERIAPSIS":"546.278","MEAN_MOTION":"15.06410177","LAUNCH_DATE":"2021-02-04","APOAPSIS":"548.087","CLASSIFICATION_TYPE":"U","OBJECT_NAME":"STARLINK-1938","OBJECT_ID":"2021-009D"},{"TIME_SYSTEM":"UTC","MEAN_ANOMALY":"272.6866","MEAN_ELEMENT_THEORY":"SGP4","FILE":"3556957","BSTAR":"0.00022953000000","REF_FRAME":"TEME","ECCENTRICITY":"0.00014890","COUNTRY_CODE":"US","GP_ID":"211669469","TLE_LINE2":"2 47552  53.0543  11.3171 0001489  87.4294 272.6866 15.06411266 87559","EPHEMERIS_TYPE":"0","NORAD_CAT_ID":"47552","ELEMENT_SET_NO":"999","INCLINATION":"53.0543","REV_AT_EPOCH":"8755","EPOCH":"2022-09-03T16:09:28.341216","CENTER_NAME":"EARTH","ARG_OF_PERICENTER":"87.4294","SEMIMAJOR_AXIS":"6925.314","MEAN_MOTION_DOT":"0.00003140","RCS_SIZE":"LARGE","TLE_LINE1":"1 47552U 21009E   22246.67324469  .00003140  00000-0  22953-3 0  9994","OBJECT_TYPE":"PAYLOAD","SITE":"AFETR","DECAY_DATE":null,"MEAN_MOTION_DDOT":"0.0000000000000","PERIOD":"95.591","MEAN_MOTION":"15.06411266","LAUNCH_DATE":"2021-02-04","APOAPSIS":"548.210","CLASSIFICATION_TYPE":"U","OBJECT_ID":"2021-009E","OBJECT_NAME":"STARLINK-1940","PERIAPSIS":"546.148","RA_OF_ASC_NODE":"11.3171"},{"REV_AT_EPOCH":"8729","ELEMENT_SET_NO":"999","INCLINATION":"53.0552","NORAD_CAT_ID":"47554","EPHEMERIS_TYPE":"0","GP_ID":"211669719","COUNTRY_CODE":"US","TLE_LINE2":"2 47554  53.0552  30.6787 0001377  93.1638 266.9508 15.06400758 87294","ECCENTRICITY":"0.00013770","REF_FRAME":"TEME","MEAN_ANOMALY":"266.9508","MEAN_ELEMENT_THEORY":"SGP4","TIME_SYSTEM":"UTC","FILE":"3556957","BSTAR":"0.00017752000000","RA_OF_ASC_NODE":"30.6787","PERIAPSIS":"546.258","LAUNCH_DATE":"2021-02-04","MEAN_MOTION":"15.06400758","OBJECT_NAME":"STARLINK-1953","OBJECT_ID":"2021-009G","CLASSIFICATION_TYPE":"U","APOAPSIS":"548.165","PERIOD":"95.592","DECAY_DATE":null,"SITE":"AFETR","OBJECT_TYPE":"PAYLOAD","MEAN_MOTION_DDOT":"0.0000000000000","RCS_SIZE":"LARGE","TLE_LINE1":"1 47554U 21009G   22246.81146947  .00002364  00000-0  17752-3 0  9993","ARG_OF_PERICENTER":"93.1638","MEAN_MOTION_DOT":"0.00002364","SEMIMAJOR_AXIS":"6925.346","EPOCH":"2022-09-03T19:28:30.962208","CENTER_NAME":"EARTH"},{"ELEMENT_SET_NO":"999","INCLINATION":"53.0561","REV_AT_EPOCH":"8741","EPHEMERIS_TYPE":"0","NORAD_CAT_ID":"47555","ECCENTRICITY":"0.00013090","GP_ID":"211670971","COUNTRY_CODE":"US","TLE_LINE2":"2 47555  53.0561  21.3832 0001309  90.5941 269.5198 15.06404433 87418","MEAN_ELEMENT_THEORY":"SGP4","MEAN_ANOMALY":"269.5198","TIME_SYSTEM":"UTC","BSTAR":"-0.00004057800000","FILE":"3556957","REF_FRAME":"TEME","LAUNCH_DATE":"2021-02-04","MEAN_MOTION":"15.06404433","OBJECT_NAME":"STARLINK-1954","OBJECT_ID":"2021-009H","APOAPSIS":"548.106","CLASSIFICATION_TYPE":"U","RA_OF_ASC_NODE":"21.3832","PERIAPSIS":"546.293","PERIOD":"95.592","RCS_SIZE":"LARGE","TLE_LINE1":"1 47555U 21009H   22246.65389357 -.00000886  00000-0 -40578-4 0  9992","DECAY_DATE":null,"SITE":"AFETR","OBJECT_TYPE":"PAYLOAD","MEAN_MOTION_DDOT":"0.0000000000000","EPOCH":"2022-09-03T15:41:36.404448","CENTER_NAME":"EARTH","ARG_OF_PERICENTER":"90.5941","MEAN_MOTION_DOT":"-0.00000886","SEMIMAJOR_AXIS":"6925.335"},{"LAUNCH_DATE":"2021-02-04","MEAN_MOTION":"15.06401616","OBJECT_ID":"2021-009J","OBJECT_NAME":"STARLINK-1955","CLASSIFICATION_TYPE":"U","APOAPSIS":"548.201","PERIAPSIS":"546.216","RA_OF_ASC_NODE":"40.6521","PERIOD":"95.592","TLE_LINE1":"1 47556U 21009J   22246.82161076  .00001520  00000-0  12089-3 0  9997","RCS_SIZE":"LARGE","SITE":"AFETR","DECAY_DATE":null,"OBJECT_TYPE":"PAYLOAD","MEAN_MOTION_DDOT":"0.0000000000000","EPOCH":"2022-09-03T19:43:07.169664","CENTER_NAME":"EARTH","ARG_OF_PERICENTER":"90.0315","MEAN_MOTION_DOT":"0.00001520","SEMIMAJOR_AXIS":"6925.344","ELEMENT_SET_NO":"999","INCLINATION":"53.0556","REV_AT_EPOCH":"8715","EPHEMERIS_TYPE":"0","NORAD_CAT_ID":"47556","ECCENTRICITY":"0.00014330","GP_ID":"211671214","COUNTRY_CODE":"US","TLE_LINE2":"2 47556  53.0556  40.6521 0001433  90.0315 270.0838 15.06401616 87159","MEAN_ANOMALY":"270.0838","MEAN_ELEMENT_THEORY":"SGP4","TIME_SYSTEM":"UTC","BSTAR":"0.00012089000000","FILE":"3556957","REF_FRAME":"TEME"},{"REF_FRAME":"TEME","TIME_SYSTEM":"UTC","MEAN_ANOMALY":"270.9905","MEAN_ELEMENT_THEORY":"SGP4","BSTAR":"0.00064771000000","FILE":"3556957","COUNTRY_CODE":"US","GP_ID":"211669970","TLE_LINE2":"2 47557  53.0581  40.4957 0001731  89.1282 270.9905 15.06353717 87165","ECCENTRICITY":"0.00017310","NORAD_CAT_ID":"47557","EPHEMERIS_TYPE":"0","REV_AT_EPOCH":"8716","ELEMENT_SET_NO":"999","INCLINATION":"53.0581","ARG_OF_PERICENTER":"89.1282","SEMIMAJOR_AXIS":"6925.490","MEAN_MOTION_DOT":"0.00009367","EPOCH":"2022-09-03T20:25:35.005440","CENTER_NAME":"EARTH","OBJECT_TYPE":"PAYLOAD","DECAY_DATE":null,"SITE":"AFETR","MEAN_MOTION_DDOT":"0.0000000000000","TLE_LINE1":"1 47557U 21009K   22246.85109960  .00009367  00000-0  64771-3 0  9997","RCS_SIZE":"LARGE","PERIOD":"95.595","PERIAPSIS":"546.157","RA_OF_ASC_NODE":"40.4957","MEAN_MOTION":"15.06353717","LAUNCH_DATE":"2021-02-04","CLASSIFICATION_TYPE":"U","APOAPSIS":"548.554","OBJECT_ID":"2021-009K","OBJECT_NAME":"STARLINK-1956"},{"TLE_LINE2":"2 47558  53.0571  10.8996 0001579  74.4058 285.7105 15.06406081 87560","GP_ID":"211670220","COUNTRY_CODE":"US","ECCENTRICITY":"0.00015790","REF_FRAME":"TEME","FILE":"3556957","BSTAR":"0.00013166000000","MEAN_ANOMALY":"285.7105","MEAN_ELEMENT_THEORY":"SGP4","TIME_SYSTEM":"UTC","REV_AT_EPOCH":"8756","ELEMENT_SET_NO":"999","INCLINATION":"53.0571","NORAD_CAT_ID":"47558","EPHEMERIS_TYPE":"0","MEAN_MOTION_DDOT":"0.0000000000000","DECAY_DATE":null,"SITE":"AFETR","OBJECT_TYPE":"PAYLOAD","TLE_LINE1":"1 47558U 21009L   22246.76538840  .00001680  00000-0  13166-3 0  9993","RCS_SIZE":"LARGE","MEAN_MOTION_DOT":"0.00001680","SEMIMAJOR_AXIS":"6925.330","ARG_OF_PERICENTER":"74.4058","CENTER_NAME":"EARTH","EPOCH":"2022-09-03T18:22:09.557760","PERIAPSIS":"546.101","RA_OF_ASC_NODE":"10.8996","OBJECT_ID":"2021-009L","OBJECT_NAME":"STARLINK-1957","APOAPSIS":"548.288","CLASSIFICATION_TYPE":"U","LAUNCH_DATE":"2021-02-04","MEAN_MOTION":"15.06406081","PERIOD":"95.592"},{"REF_FRAME":"TEME","BSTAR":"0.00012311000000","FILE":"3556957","MEAN_ELEMENT_THEORY":"SGP4","MEAN_ANOMALY":"280.6724","TIME_SYSTEM":"UTC","TLE_LINE2":"2 47559  53.0570   1.0584 0001233  79.4404 280.6724 15.06403301 87701","GP_ID":"211670471","COUNTRY_CODE":"US","ECCENTRICITY":"0.00012330","NORAD_CAT_ID":"47559","EPHEMERIS_TYPE":"0","REV_AT_EPOCH":"8770","ELEMENT_SET_NO":"999","INCLINATION":"53.0570","MEAN_MOTION_DOT":"0.00001553","SEMIMAJOR_AXIS":"6925.338","ARG_OF_PERICENTER":"79.4404","CENTER_NAME":"EARTH","EPOCH":"2022-09-03T17:30:24.499872","MEAN_MOTION_DDOT":"0.0000000000000","SITE":"AFETR","DECAY_DATE":null,"OBJECT_TYPE":"PAYLOAD","RCS_SIZE":"LARGE","TLE_LINE1":"1 47559U 21009M   22246.72945023  .00001553  00000-0  12311-3 0  9995","PERIOD":"95.592","RA_OF_ASC_NODE":"1.0584","PERIAPSIS":"546.350","OBJECT_ID":"2021-009M","OBJECT_NAME":"STARLINK-1958","APOAPSIS":"548.057","CLASSIFICATION_TYPE":"U","LAUNCH_DATE":"2021-02-04","MEAN_MOTION":"15.06403301"},{"CLASSIFICATION_TYPE":"U","APOAPSIS":"548.108","OBJECT_NAME":"STARLINK-1959","OBJECT_ID":"2021-009N","MEAN_MOTION":"15.06404894","LAUNCH_DATE":"2021-02-04","RA_OF_ASC_NODE":"0.4718","PERIAPSIS":"546.289","PERIOD":"95.592","RCS_SIZE":"LARGE","TLE_LINE1":"1 47560U 21009N   22246.85382921  .00001494  00000-0  11916-3 0  9997","MEAN_MOTION_DDOT":"0.0000000000000","OBJECT_TYPE":"PAYLOAD","DECAY_DATE":null,"SITE":"AFETR","CENTER_NAME":"EARTH","EPOCH":"2022-09-03T20:29:30.843744","SEMIMAJOR_AXIS":"6925.334","MEAN_MOTION_DOT":"0.00001494","ARG_OF_PERICENTER":"91.0040","ELEMENT_SET_NO":"999","INCLINATION":"53.0551","REV_AT_EPOCH":"8833","EPHEMERIS_TYPE":"0","NORAD_CAT_ID":"47560","ECCENTRICITY":"0.00013130","TLE_LINE2":"2 47560  53.0551   0.4718 0001313  91.0040 269.1099 15.06404894 88334","COUNTRY_CODE":"US","GP_ID":"211644138","FILE":"3556755","BSTAR":"0.00011916000000","TIME_SYSTEM":"UTC","MEAN_ANOMALY":"269.1099","MEAN_ELEMENT_THEORY":"SGP4","REF_FRAME":"TEME"},{"PERIOD":"95.592","LAUNCH_DATE":"2021-02-04","MEAN_MOTION":"15.06396896","OBJECT_NAME":"STARLINK-1960","OBJECT_ID":"2021-009P","APOAPSIS":"548.099","CLASSIFICATION_TYPE":"U","PERIAPSIS":"546.347","RA_OF_ASC_NODE":"20.8497","EPOCH":"2022-09-03T18:36:45.887040","CENTER_NAME":"EARTH","ARG_OF_PERICENTER":"107.6385","MEAN_MOTION_DOT":"0.00000973","SEMIMAJOR_AXIS":"6925.358","TLE_LINE1":"1 47561U 21009P   22246.77553110  .00000973  00000-0  84206-4 0  9993","RCS_SIZE":"LARGE","DECAY_DATE":null,"SITE":"AFETR","OBJECT_TYPE":"PAYLOAD","MEAN_MOTION_DDOT":"0.0000000000000","EPHEMERIS_TYPE":"0","NORAD_CAT_ID":"47561","ELEMENT_SET_NO":"999","INCLINATION":"53.0544","REV_AT_EPOCH":"8743","MEAN_ELEMENT_THEORY":"SGP4","MEAN_ANOMALY":"252.4742","TIME_SYSTEM":"UTC","BSTAR":"0.00008420600000","FILE":"3556957","REF_FRAME":"TEME","ECCENTRICITY":"0.00012650","GP_ID":"211669470","COUNTRY_CODE":"US","TLE_LINE2":"2 47561  53.0544  20.8497 0001265 107.6385 252.4742 15.06396896 87431"}];
